AKEBONO (EXOS-D)        
1 19822U 89016A   20213.86143118  .00013990  83739-6  24756-3 0  9991
2 19822  75.0163  13.5383 1723239 230.8889 112.6167 12.10038472 44970
HST                     
1 20580U 90037B   20214.09880788  .00000369  00000-0  11443-4 0  9996
2 20580  28.4706  24.3723 0002575 209.5887 104.4597 15.09411491462718
POLAR                   
1 23802U 96013A   20212.05380797  .00000263  00000-0  00000-0 0  9991
2 23802  78.7056 249.2961 6283885 281.8771  18.2978  1.29846574116961
SWAS                    
1 25560U 98071A   20214.51849417  .00000068  00000-0  14986-4 0  9997
2 25560  69.8981 270.2622 0011091 272.3979  87.5908 14.93892031175979
ORSTED                  
1 25635U 99008B   20214.54810684  .00000063  00000-0  22706-4 0  9992
2 25635  96.4448 228.2170 0137883 206.0418 153.3800 14.48215732131418
CXO                     
1 25867U 99040B   20216.76725322  .00000356  00000-0  00000+0 0  9998
2 25867  61.6219 265.7495 7810191 227.6051   0.3977  0.37807257 20370
XMM-NEWTON              
1 25989U 99066A   20215.42243414  .00000031  00000-0  00000+0 0  9990
2 25989  71.1133 319.8195 7053901  92.8385   0.4815  0.50129837 26615
TERRA                   
1 25994U 99068A   20214.42366689 -.00000017  00000-0  63519-5 0  9992
2 25994  98.2118 288.0803 0001195 101.3137 258.8194 14.57111476 96864
CLUSTER II-FM7 (SAMBA)  
1 26410U 00041A   20216.84338875 -.00000143  00000-0  00000-0 0  9994
2 26410 131.9900 342.0006 4452000 184.4779 359.0378  0.44198381 10798
CLUSTER II-FM6 (SALSA)  
1 26411U 00041B   20216.94214280 -.00000225  00000-0  00000-0 0  9990
2 26411 132.0325 343.3211 5762040 190.2680 359.0303  0.44211900 10835
CLUSTER II-FM5 (RUMBA)  
1 26463U 00045A   20216.90125008 -.00000161  00000-0  00000-0 0  9995
2 26463 135.6672 342.9877 5364620 190.0183 359.0601  0.44218210 10727
CLUSTER II-FM8 (TANGO)  
1 26464U 00045B   20216.83236900 -.00000144  00000-0  00000-0 0  9993
2 26464 131.9929 341.9880 4449232 184.4788 359.0067  0.44220345 10802
ODIN                    
1 26702U 01007A   20214.04252148  .00000238  00000-0  19452-4 0  9998
2 26702  97.5533 230.2651 0012593 112.2546 248.0019 15.08127134 62937
TIMED                   
1 26998U 01055B   20214.10134227  .00000057  00000-0  10236-4 0  9992
2 26998  74.0711 204.3140 0002666 271.1560  88.9315 14.88204062 11182
RHESSI                  
1 27370U 02004A   20214.22647320  .00001233  00000-0  42291-4 0  9991
2 27370  38.0323 267.7608 0012083 337.4533  22.5706 15.32932449 21207
INTEGRAL                
1 27540U 02048A   20212.04259171  .00000726  00000-0  00000+0 0  9992
2 27540  55.6114 110.5294 8967033 292.6803   2.1460  0.37582189 18555
CORIOLIS                
1 27640U 03001A   20214.48177992  .00000002  00000-0  21843-4 0  9993
2 27640  98.7259 223.2340 0012979 267.5173 210.0276 14.19043210909805
SORCE                   
1 27651U 03004A   20213.70389673 -.00000001  00000-0  14070-4 0  9997
2 27651  39.9961  83.2553 0023360 326.6913  33.2406 14.89131190950829
MOST                    
1 27843U 03031D   20213.99579171 -.00000007  00000-0  17060-4 0  9993
2 27843  98.7093 220.6484 0009432 331.2981  28.7675 14.20614682885924
SCISAT 1                
1 27858U 03036A   20214.09302205  .00000029  00000-0  91299-5 0  9998
2 27858  73.9332  96.8690 0009081 290.3061  69.7137 14.77295585914242
SWIFT                   
1 28485U 04047A   20213.93376937  .00000730  00000-0  19275-4 0  9995
2 28485  20.5575  73.4886 0010939 259.7245 100.1955 15.04644560860184
FORMOSAT-3 FM6          
1 29047U 06011A   20214.21621803  .00000026  00000-0  26613-4 0  9992
2 29047  71.9790  18.6275 0050915 343.1315  16.8125 14.28744491747719
FORMOSAT-3 FM1          
1 29048U 06011B   20214.23597259  .00000047  00000-0  35038-4 0  9996
2 29048  71.9666 289.4466 0045419 301.6624  58.0086 14.28707855750202
FORMOSAT-3 FM5          
1 29049U 06011C   20214.09446413  .00000017  00000-0  22967-4 0  9990
2 29049  72.0207 101.6380 0035950 327.1642  32.7260 14.28790754745979
FORMOSAT-3 FM3          
1 29050U 06011D   20214.25893021  .00000080  00000-0  27162-4 0  9993
2 29050  72.0141 242.8161 0051678 244.5491 115.0310 14.58933359762863
FORMOSAT-3 FM4          
1 29051U 06011E   20214.09351030  .00000022  00000-0  24521-4 0  9997
2 29051  72.0063   3.6051 0068919 208.8634 150.8684 14.28821483748569
FORMOSAT-3 FM2          
1 29052U 06011F   20214.08991559  .00000015  00000-0  22047-4 0  9996
2 29052  72.0344  77.9548 0041652 288.0299  71.6301 14.28927332746079
CLOUDSAT                
1 29107U 06016A   20214.18509011  .00000061  00000-0  21387-4 0  9998
2 29107  98.2335 161.3011 0000511 179.4326 180.6876 14.62429968758864
CALIPSO                 
1 29108U 06016B   20214.18450691  .00000058  00000-0  20928-4 0  9994
2 29108  98.2320 161.0749 0001536  77.3966 282.7407 14.62427420758852
HINODE (SOLAR-B)        
1 29479U 06041A   20214.02116695  .00000047  00000-0  17788-4 0  9997
2 29479  98.1589 225.4546 0016030 225.2080 134.7820 14.65076415740421
SJ-6C                   
1 29505U 06046A   20214.37246055 -.00000329  00000-0 -24855-4 0  9992
2 29505  97.8160 227.9401 0003275 236.9241 123.1674 14.94883923750325
SJ-6D                   
1 29506U 06046B   20214.35974735 -.00000636  00000-0 -54946-4 0  9999
2 29506  97.8362 228.0557 0001993  16.4160 343.7127 14.93520595749873
AGILE                   
1 31135U 07013A   20214.15407381  .00001961  00000-0  25175-4 0  9993
2 31135   2.4662 204.2970 0011780 157.1207 202.9372 15.32415970371529
AIM                     
1 31304U 07015A   20214.25931039  .00000527  00000-0  33247-4 0  9992
2 31304  97.9012  98.7065 0004555 188.8437 171.2713 15.13653706727469
FGRST (GLAST)           
1 33053U 08029A   20214.14112965  .00000408  00000-0  64394-5 0  9994
2 33053  25.5819 156.0492 0012451 163.3024 196.7923 15.11354293670100
WISE                    
1 36119U 09071A   20214.07130790  .00000613  00000-0  23537-4 0  9997
2 36119  97.3252 249.7350 0001766 183.0191 177.1039 15.30167678590627
SDO                     
1 36395U 10005A   20213.27340809 -.00000108  00000-0  00000+0 0  9992
2 36395  30.3942 120.5725 0001605   3.1972 181.8963  1.00269186 38500
CRYOSAT 2               
1 36508U 10013A   20214.46640294 -.00000022  00000-0 -62381-5 0  9992
2 36508  92.0319 118.6575 0008224  67.0867 293.1207 14.51901648546784
X-SAT                   
1 37389U 11015C   20214.40446036 -.00000028  00000-0  59386-5 0  9991
2 37389  98.4323 267.9397 0014706 154.5185 205.6725 14.24379498482687
GCOM-W1 (SHIZUKU)       
1 38337U 12025A   20214.12176575 -.00000001  00000-0  98852-5 0  9996
2 38337  98.2106 153.4842 0001539 127.9410 357.6450 14.57112261436509
NUSTAR                  
1 38358U 12031A   20213.95035558  .00000880  00000-0  18089-4 0  9998
2 38358   6.0271 305.8131 0011605 175.4799 184.5435 14.88320864442656
NEOSSAT                 
1 39089U 13009D   20214.12316164  .00000028  00000-0  25217-4 0  9996
2 39089  98.4650  55.0774 0011866 149.5540 210.6336 14.34516115388956
IRIS                    
1 39197U 13033A   20214.47104677  .00000064  00000-0  15766-4 0  9993
2 39197  97.9597  36.0702 0029124  84.6775 275.7757 14.78741632382758
HISAKI (SPRINT-A)       
1 39253U 13049A   20214.51763339  .00000106  00000-0  53045-4 0  9993
2 39253  29.7216 325.2667 0137319 267.0897  91.3952 13.55225062341160
CASSIOPE                
1 39265U 13055A   20214.25210335  .00002775  00000-0  77272-4 0  9999
2 39265  80.9666 267.5733 0660398 171.8282 189.4336 14.29566896354200
STSAT-3                 
1 39422U 13066G   20214.24079556  .00000127  00000-0  18629-4 0  9993
2 39422  97.5089 244.7258 0024170  47.4291 312.8961 14.89844839363801
SWARM B                 
1 39451U 13067A   20214.18048446  .00000263  00000-0  10005-4 0  9994
2 39451  87.7498 266.4239 0003856  76.7768 283.3908 15.21761642356767
SWARM A                 
1 39452U 13067B   20214.54649512  .00000839  00000-0  17025-4 0  9994
2 39452  87.3619 114.3213 0002571 101.2137 258.9409 15.44627468376183
SWARM C                 
1 39453U 13067C   20214.22251131  .00000858  00000-0  17436-4 0  9993
2 39453  87.3473 115.3055 0002549 101.0421 259.1124 15.44627895376053
BRITE-CA1 (TORONTO)     
1 40020U 14033L   20214.50816968  .00000034  00000-0  14332-4 0  9993
2 40020  97.7311  40.1380 0085962 289.2775  69.9147 14.66652928327368
OCO 2                   
1 40059U 14035A   20214.16350737 -.00000004  00000-0  91691-5 0  9998
2 40059  98.2107 154.2615 0001510  88.4499 271.6872 14.57108625323549
BRITE-PL2 (HEWELIUSZ)   
1 40119U 14049B   20214.48003860  .00000051  00000-0  12532-4 0  9994
2 40119  97.8957 306.2580 0016486 325.9988  34.0169 14.84519821322468
RESURS P2               
1 40360U 14087A   20214.52764097  .00000437  00000-0  15768-4 0  9997
2 40360  97.2452 302.4523 0009919  33.8572  22.1067 15.33596942313225
MMS 1                   
1 40482U 15011A   20207.04166667 -.00001588  00000-0  00000+0 0  9995
2 40482  29.1471 120.0719 8597238  22.2843 359.9824  0.28640990 11322
MMS 2                   
1 40483U 15011B   20207.04166667 -.00001587  00000-0  00000+0 0  9995
2 40483  29.1466 120.0725 8594747  22.2869 359.9769  0.28640997 11307
MMS 3                   
1 40484U 15011C   20212.35416667 -.00002347  00000-0  00000+0 0  9999
2 40484  29.1889 119.9635 8587776  22.5013 187.4711  0.28667768 11319
MMS 4                   
1 40485U 15011D   20212.35416667 -.00002346  00000-0  00000+0 0  9999
2 40485  29.1927 119.9904 8587301  22.4775 187.4639  0.28667378 11316
ASTROSAT                
1 40930U 15052A   20213.95426597  .00000720  00000-0  11980-4 0  9996
2 40930   5.9981  25.1254 0008519 182.0078 178.0015 14.76322792261800
DAMPE                   
1 41173U 15078A   20214.42835854  .00000102  00000-0  70867-5 0  9991
2 41173  97.3264 207.3957 0015546  92.6985  73.5374 15.23886845257241
PISAT                   
1 41784U 16059B   20214.14337567  .00000049  00000-0  18489-4 0  9997
2 41784  98.0154 269.4167 0032239 170.2255 189.9582 14.63528185205449
HXMT (HUIYAN)           
1 42758U 17034A   20214.22187218  .00000094  00000-0  19562-4 0  9991
2 42758  43.0176 150.3968 0012099 306.5735 196.4863 15.08857780172636
FLYING LAPTOP           
1 42831U 17042G   20214.22179708  .00000193  00000-0  24774-4 0  9998
2 42831  97.5155  94.0302 0015157 131.5407 228.7115 14.91141903165966
PICSAT                  
1 43132U 18004X   20214.14587140  .00001054  00000-0  45773-4 0  9995
2 43132  97.4452 285.2105 0007902 253.2874 106.7496 15.24505174141865
ZHANGZHENG-1 (CSES)     
1 43194U 18015C   20214.52568442  .00000642  00000-0  32038-4 0  9993
2 43194  97.4410 339.0122 0014250 318.8587 171.1937 15.20997489138511
ICON                    
1 44628U 19068A   20214.04853323  .00000418  00000-0  20837-4 0  9992
2 44628  26.9903 102.5581 0019208  94.7468 265.5283 14.91711588 44098
